  
[{"zip_code":"10910","city":"ARDEN"},{"zip_code":"10912","city":"BELLVALE"},{"zip_code":"10914","city":"BLOOMING GROVE"},{"zip_code":"10915","city":"BULLVILLE"},{"zip_code":"10916","city":"CAMPBELL HALL"},{"zip_code":"10917","city":"CENTRAL VALLEY"},{"zip_code":"10918","city":"CHESTER"},{"zip_code":"10919","city":"CIRCLEVILLE"},{"zip_code":"10921","city":"FLORIDA"},{"zip_code":"10922","city":"FORT MONTGOMERY"},{"zip_code":"10924","city":"GOSHEN"},{"zip_code":"10925","city":"GREENWOOD LAKE"},{"zip_code":"10926","city":"HARRIMAN"},{"zip_code":"10928","city":"HIGHLAND FALLS"},{"zip_code":"10930","city":"HIGHLAND MILLS"},{"zip_code":"10932","city":"HOWELLS"},{"zip_code":"10933","city":"JOHNSON"},{"zip_code":"10940","city":"MIDDLETOWN"},{"zip_code":"10941","city":"MIDDLETOWN"},{"zip_code":"10949","city":"MONROE"},{"zip_code":"10950","city":"MONROE"},{"zip_code":"10953","city":"MOUNTAINVILLE"},{"zip_code":"10958","city":"NEW HAMPTON"},{"zip_code":"10959","city":"NEW MILFORD"},{"zip_code":"10963","city":"OTISVILLE"},{"zip_code":"10969","city":"PINE ISLAND"},{"zip_code":"10973","city":"SLATE HILL"},{"zip_code":"10975","city":"SOUTHFIELDS"},{"zip_code":"10979","city":"STERLING FOREST"},{"zip_code":"10981","city":"SUGAR LOAF"},{"zip_code":"10985","city":"THOMPSON RIDGE"},{"zip_code":"10987","city":"TUXEDO PARK"},{"zip_code":"10988","city":"UNIONVILLE"},{"zip_code":"10990","city":"WARWICK"},{"zip_code":"10992","city":"WASHINGTONVILLE"},{"zip_code":"10996","city":"WEST POINT"},{"zip_code":"10997","city":"WEST POINT"},{"zip_code":"10998","city":"WESTTOWN"},{"zip_code":"12518","city":"CORNWALL"},{"zip_code":"12520","city":"CORNWALL ON HUDSON"},{"zip_code":"12543","city":"MAYBROOK"},{"zip_code":"12549","city":"MONTGOMERY"},{"zip_code":"12550","city":"NEWBURGH"},{"zip_code":"12551","city":"NEWBURGH"},{"zip_code":"12552","city":"NEWBURGH"},{"zip_code":"12553","city":"NEW WINDSOR"},{"zip_code":"12555","city":"NEWBURGH"},{"zip_code":"12566","city":"PINE BUSH"},{"zip_code":"12575","city":"ROCK TAVERN"},{"zip_code":"12577","city":"SALISBURY MILLS"},{"zip_code":"12584","city":"VAILS GATE"},{"zip_code":"12586","city":"WALDEN"},{"zip_code":"12729","city":"CUDDEBACKVILLE"},{"zip_code":"12746","city":"HUGUENOT"},{"zip_code":"12771","city":"PORT JERVIS"},{"zip_code":"12780","city":"SPARROW BUSH"}]